{
    "links": {
        "self": "http://www.neowsapp.com/rest/v1/neo/3772977?api_key=iIulBulltgU6a56xZRHN4H3l9WmuAYTsLGpBGhQ2"
    },
    "id": "3772977",
    "neo_reference_id": "3772977",
    "name": "(2017 FC101)",
    "designation": "2017 FC101",
    "nasa_jpl_url": "http://ssd.jpl.nasa.gov/sbdb.cgi?sstr=3772977",
    "absolute_magnitude_h": 26.1,
    "estimated_diameter": {
        "kilometers": {
            "estimated_diameter_min": 0.0160160338,
            "estimated_diameter_max": 0.0358129403
        },
        "meters": {
            "estimated_diameter_min": 16.0160337979,
            "estimated_diameter_max": 35.8129403019
        },
        "miles": {
            "estimated_diameter_min": 0.0099518989,
            "estimated_diameter_max": 0.0222531225
        },
        "feet": {
            "estimated_diameter_min": 52.5460443254,
            "estimated_diameter_max": 117.4965270602
        }
    },
    "is_potentially_hazardous_asteroid": false,
    "close_approach_data": [
        {
            "close_approach_date": "2017-03-29",
            "close_approach_date_full": "2017-Mar-29 15:41",
            "epoch_date_close_approach": 1490802060000,
            "relative_velocity": {
                "kilometers_per_second": "7.2573818169",
                "kilometers_per_hour": "26126.5745408431",
                "miles_per_hour": "16234.0373862255"
            },
            "miss_distance": {
                "astronomical": "0.0417500936",
                "lunar": "16.2407864104",
                "kilometers": "6245725.074860632",
                "miles": "3880913.6011634416"
            },
            "orbiting_body": "Earth"
        }
    ],
    "orbital_data": {
        "orbit_id": "4",
        "orbit_determination_date": "2017-04-06 08:19:04",
        "first_observation_date": "2017-03-18",
        "last_observation_date": "2017-04-03",
        "data_arc_in_days": 16,
        "observations_used": 33,
        "orbit_uncertainty": "8",
        "minimum_orbit_intersection": ".0353525",
        "jupiter_tisserand_invariant": "3.247",
        "epoch_osculation": "2457832.5",
        "eccentricity": ".5777029356836395",
        "semi_major_axis": "2.445360219245599",
        "inclination": "1.436135117990055",
        "ascending_node_longitude": "54.43452668189961",
        "orbital_period": "1396.730739252092",
        "perihelion_distance": "1.032668441783428",
        "perihelion_argument": "140.2561754777915",
        "aphelion_distance": "3.858051996707769",
        "perihelion_time": "2457846.474486913073",
        "mean_anomaly": "356.3981495163483",
        "mean_motion": ".2577447391132591",
        "equinox": "J2000",
        "orbit_class": {
            "orbit_class_type": "AMO",
            "orbit_class_description": "Near-Earth asteroid orbits similar to that of 1221 Amor",
            "orbit_class_range": "1.017 AU < q (perihelion) < 1.3 AU"
        }
    },
    "is_sentry_object": false
}